$$SOE
2460728.500000000, A.D. 2025-Feb-22 00:00:00.0000, -1.583737251658645E+08, 3.520632713505951E+08, 4.010739080450761E+07,
2460735.500000000, A.D. 2025-Mar-01 00:00:00.0000, -1.673904422327688E+08, 3.450002630317273E+08, 4.129131390227079E+07,
2460742.500000000, A.D. 2025-Mar-08 00:00:00.0000, -1.762653970540175E+08, 3.376454284290007E+08, 4.244027710938731E+07,
2460749.500000000, A.D. 2025-Mar-15 00:00:00.0000, -1.849882161136708E+08, 3.299995035402636E+08, 4.355261888733238E+07,
2460756.500000000, A.D. 2025-Mar-22 00:00:00.0000, -1.935483028065056E+08, 3.220635976100976E+08, 4.462665645857027E+07,
2460763.500000000, A.D. 2025-Mar-29 00:00:00.0000, -2.019348466848392E+08, 3.138392152720240E+08, 4.566068807793282E+07,
2460770.500000000, A.D. 2025-Apr-05 00:00:00.0000, -2.101368328660349E+08, 3.053282801994727E+08, 4.665299554995929E+07,
2460777.500000000, A.D. 2025-Apr-12 00:00:00.0000, -2.181430536825130E+08, 2.965331602685845E+08, 4.760184719834854E+07,
2460784.500000000, A.D. 2025-Apr-19 00:00:00.0000, -2.259421229150304E+08, 2.874566932261803E+08, 4.850550125243375E+07,
2460791.500000000, A.D. 2025-Apr-26 00:00:00.0000, -2.335224924912093E+08, 2.781022125095372E+08, 4.936220962777042E+07,
2460798.500000000, A.D. 2025-May-03 00:00:00.0000, -2.408724716868675E+08, 2.684735730630328E+08, 5.017022210921033E+07,
2460805.500000000, A.D. 2025-May-10 00:00:00.0000, -2.479802489465113E+08, 2.585751769610064E+08, 5.092779094980642E+07,
2460812.500000000, A.D. 2025-May-17 00:00:00.0000, -2.548339164212035E+08, 2.484119985696966E+08, 5.163317589145210E+07,
2460819.500000000, A.D. 2025-May-24 00:00:00.0000, -2.614214971708451E+08, 2.379896089397472E+08, 5.228464959612501E+07,
2460826.500000000, A.D. 2025-May-31 00:00:00.0000, -2.677309747158197E+08, 2.273141994575208E+08, 5.288050347998215E+07,
2460833.500000000, A.D. 2025-Jun-07 00:00:00.0000, -2.737503254199503E+08, 2.163926056487702E+08, 5.341905408595082E+07,
2460840.500000000, A.D. 2025-Jun-14 00:00:00.0000, -2.794675561255647E+08, 2.052323301316234E+08, 5.389865015266760E+07,
2460847.500000000, A.D. 2025-Jun-21 00:00:00.0000, -2.848707458439504E+08, 1.938415610890069E+08, 5.431767998995946E+07,
2460854.500000000, A.D. 2025-Jun-28 00:00:00.0000, -2.899480883468230E+08, 1.822291876365622E+08, 5.467457899822526E+07,
2460861.500000000, A.D. 2025-Jul-05 00:00:00.0000, -2.946879371129057E+08, 1.704048138304211E+08, 5.496783761957885E+07,
2460868.500000000, A.D. 2025-Jul-12 00:00:00.0000, -2.990788537140024E+08, 1.583787700904130E+08, 5.519600972978795E+07,
2460875.500000000, A.D. 2025-Jul-19 00:00:00.0000, -3.031096592845808E+08, 1.461621210365422E+08, 5.535772136249297E+07,
2460882.500000000, A.D. 2025-Jul-26 00:00:00.0000, -3.067694886372967E+08, 1.337666692497273E+08, 5.545167968730374E+07,
2460889.500000000, A.D. 2025-Aug-02 00:00:00.0000, -3.100478466691732E+08, 1.212049545509748E+08, 5.547668217298646E+07,
2460896.500000000, A.D. 2025-Aug-09 00:00:00.0000, -3.129346666797687E+08, 1.084902483721945E+08, 5.543162585783800E+07,
2460903.500000000, A.D. 2025-Aug-16 00:00:00.0000, -3.154203701017292E+08, 9.563654276881999E+07, 5.531551663055617E+07,
2460910.500000000, A.D. 2025-Aug-23 00:00:00.0000, -3.174959268606550E+08, 8.265853374053209E+07, 5.512747840210800E+07,
2460917.500000000, A.D. 2025-Aug-30 00:00:00.0000, -3.191529154785712E+08, 6.957159927156293E+07, 5.486676209386151E+07,
2460924.500000000, A.D. 2025-Sep-06 00:00:00.0000, -3.203835837210685E+08, 5.639177284701897E+07, 5.453275454319960E+07,
2460931.500000000, A.D. 2025-Sep-13 00:00:00.0000, -3.211809107898503E+08, 4.313570979046073E+07, 5.412498716115155E+07,
2460938.500000000, A.D. 2025-Sep-20 00:00:00.0000, -3.215386670722333E+08, 2.982064469427799E+07, 5.364314378816517E+07,
2460945.500000000, A.D. 2025-Sep-27 00:00:00.0000, -3.214514696270580E+08, 1.646434306427272E+07, 5.308706778175010E+07,
2460952.500000000, A.D. 2025-Oct-04 00:00:00.0000, -3.209148346375470E+08, 3.085047822213182E+06, 5.245676844074177E+07,
2460959.500000000, A.D. 2025-Oct-11 00:00:00.0000, -3.199252264212432E+08, -1.029858006307686E+07, 5.175242660448463E+07,
2460966.500000000, A.D. 2025-Oct-18 00:00:00.0000, -3.184801019406258E+08, -2.366752675754789E+07, 5.097439926678330E+07,
2460973.500000000, A.D. 2025-Oct-25 00:00:00.0000, -3.165779499253470E+08, -3.700249609544666E+07, 5.012322308934076E+07,
2460980.500000000, A.D. 2025-Nov-01 00:00:00.0000, -3.142183238606356E+08, -5.028398488428746E+07, 4.919961672008750E+07,
2460987.500000000, A.D. 2025-Nov-08 00:00:00.0000, -3.114018681626576E+08, -6.349236233745550E+07, 4.820448183197035E+07,
2460994.500000000, A.D. 2025-Nov-15 00:00:00.0000, -3.081303368252802E+08, -7.660795291807005E+07, 4.713890280071821E+07,
2461001.500000000, A.D. 2025-Nov-22 00:00:00.0000, -3.044066036631657E+08, -8.961112151692313E+07, 4.600414495823199E+07,
2461008.500000000, A.D. 2025-Nov-29 00:00:00.0000, -3.002346639494365E+08, -1.024823589088974E+08, 4.480165150711975E+07,
2461015.500000000, A.D. 2025-Dec-06 00:00:00.0000, -2.956196295076178E+08, -1.152023666553260E+08, 4.353303929915293E+07,
2461022.500000000, A.D. 2025-Dec-13 00:00:00.0000, -2.905677167551966E+08, -1.277521438205995E+08, 4.220009319404621E+07,
2461029.500000000, A.D. 2025-Dec-20 00:00:00.0000, -2.850862242820421E+08, -1.401130734599489E+08, 4.080475881728284E+07,
2461036.500000000, A.D. 2025-Dec-27 00:00:00.0000, -2.791835012462471E+08, -1.522670052725775E+08, 3.934913410251160E+07,
2461043.500000000, A.D. 2026-Jan-03 00:00:00.0000, -2.728689083832988E+08, -1.641963340590948E+08, 3.783545979540487E+07,
2461050.500000000, A.D. 2026-Jan-10 00:00:00.0000, -2.661527719861240E+08, -1.758840737523035E+08, 3.626610896548524E+07,
2461057.500000000, A.D. 2026-Jan-17 00:00:00.0000, -2.590463312166373E+08, -1.873139262867571E+08, 3.464357562713212E+07,
2461064.500000000, A.D. 2026-Jan-24 00:00:00.0000, -2.515616793721813E+08, -1.984703445545093E+08, 3.297046260862007E+07,
2461071.500000000, A.D. 2026-Jan-31 00:00:00.0000, -2.437116998714313E+08, -2.093385888357274E+08, 3.124946882012062E+07,
2461078.500000000, A.D. 2026-Feb-07 00:00:00.0000, -2.355099977533604E+08, -2.199047762669068E+08, 2.948337606987227E+07,
2461085.500000000, A.D. 2026-Feb-14 00:00:00.0000, -2.269708273383761E+08, -2.301559229989568E+08, 2.767503556594324E+07,
2461092.500000000, A.D. 2026-Feb-21 00:00:00.0000, -2.181090165917073E+08, -2.400799782391123E+08, 2.582735427581094E+07,
2461099.500000000, A.D. 2026-Feb-28 00:00:00.0000, -2.089398902045025E+08, -2.496658489265337E+08, 2.394328149318355E+07,
2461106.500000000, A.D. 2026-Mar-07 00:00:00.0000, -1.994791943637787E+08, -2.589034170241462E+08, 2.202579578901191E+07,
2461113.500000000, A.D. 2026-Mar-14 00:00:00.0000, -1.897430213145325E+08, -2.677835519164061E+08, 2.007789203872791E+07,
2461120.500000000, A.D. 2026-Mar-21 00:00:00.0000, -1.797477327613124E+08, -2.762981152825111E+08, 1.810256872396423E+07,
2461127.500000000, A.D. 2026-Mar-28 00:00:00.0000, -1.695098848824655E+08, -2.844399577773316E+08, 1.610281588724205E+07,
2461134.500000000, A.D. 2026-Apr-04 00:00:00.0000, -1.590461562459996E+08, -2.922029089265603E+08, 1.408160380994019E+07,
2461141.500000000, A.D. 2026-Apr-11 00:00:00.0000, -1.483732789518917E+08, -2.995817611034238E+08, 1.204187243602294E+07,
2461148.500000000, A.D. 2026-Apr-18 00:00:00.0000, -1.375079733497324E+08, -3.065722481543131E+08, 9.986521586709306E+06,
2461155.500000000, A.D. 2026-Apr-25 00:00:00.0000, -1.264668867037834E+08, -3.131710192573313E+08, 7.918402007447392E+06,
2461162.500000000, A.D. 2026-May-02 00:00:00.0000, -1.152665361032900E+08, -3.193756086624035E+08, 5.840307270855814E+06,
2461169.500000000, A.D. 2026-May-09 00:00:00.0000, -1.039232557335325E+08, -3.251844020029783E+08, 3.754966532753825E+06,
2461176.500000000, A.D. 2026-May-16 00:00:00.0000, -9.245314828507864E+07, -3.305965996576985E+08, 1.665038118057430E+06,
2461183.500000000, A.D. 2026-May-23 00:00:00.0000, -8.087204052677691E+07, -3.356121767385345E+08, -4.268959967899323E+05,
2461190.500000000, A.D. 2026-May-30 00:00:00.0000, -6.919544512713403E+07, -3.402318399563113E+08, -2.518334610902801E+06,
2461197.500000000, A.D. 2026-Jun-06 00:00:00.0000, -5.743852898300511E+07, -3.444569851727771E+08, -4.606860905776456E+06,
2461204.500000000, A.D. 2026-Jun-13 00:00:00.0000, -4.561608427592182E+07, -3.482896559391885E+08, -6.690145590646490E+06,
2461211.500000000, A.D. 2026-Jun-20 00:00:00.0000, -3.374250259762444E+07, -3.517325005523255E+08, -8.765949345411703E+06,
2461218.500000000, A.D. 2026-Jun-27 00:00:00.0000, -2.183175364486634E+07, -3.547887283786614E+08, -1.083212448134708E+07,
2461225.500000000, A.D. 2026-Jul-04 00:00:00.0000, -9.897368254759854E+06, -3.574620665870439E+08, -1.288661593421292E+07,
2461232.500000000, A.D. 2026-Jul-11 00:00:00.0000, 2.047574723591998E+06, -3.597567177423772E+08, -1.492746167719011E+07,
2461239.500000000, A.D. 2026-Jul-18 00:00:00.0000, 1.399045807844084E+07, -3.616773185101287E+08, -1.695279261455765E+07,
2461246.500000000, A.D. 2026-Jul-25 00:00:00.0000, 2.591913270306793E+07, -3.632288997011145E+08, -1.896083201275261E+07,
2461253.500000000, A.D. 2026-Aug-01 00:00:00.0000, 3.782192120494527E+07, -3.644168478958820E+08, -2.094989453075816E+07,
2461260.500000000, A.D. 2026-Aug-08 00:00:00.0000, 4.968761914288794E+07, -3.652468688356047E+08, -2.291838492398539E+07,
2461267.500000000, A.D. 2026-Aug-15 00:00:00.0000, 6.150549457268593E+07, -3.657249522404467E+08, -2.486479647161272E+07,
2461274.500000000, A.D. 2026-Aug-22 00:00:00.0000, 7.326528539888531E+07, -3.658573369087071E+08, -2.678770900325738E+07,
2461281.500000000, A.D. 2026-Aug-29 00:00:00.0000, 8.495719249553688E+07, -3.656504775127907E+08, -2.868578646954423E+07,
2461288.500000000, A.D. 2026-Sep-05 00:00:00.0000, 9.657187097353779E+07, -3.651110159812319E+08, -3.055777452634162E+07,
2461295.500000000, A.D. 2026-Sep-12 00:00:00.0000, 1.081004222804323E+08, -3.642457549784611E+08, -3.240249819115734E+07,
$$EOE